[{"OBJECT_NAME":"STARLINK-37009","OBJECT_ID":"2026-053B","EPOCH":"2026-04-01T04:54:48.197664","MEAN_MOTION":15.80988831,"ECCENTRICITY":0.0001393,"INCLINATION":97.2846,"RA_OF_ASC_NODE":326.5848,"ARG_OF_PERICENTER":40.1181,"MEAN_ANOMALY":320.0189,"EPHEMERIS_TYPE":0,"CLASSIFICATION_TYPE":"U","NORAD_CAT_ID":68208,"ELEMENT_SET_NO":999,"REV_AT_EPOCH":361,"BSTAR":0.0014082,"MEAN_MOTION_DOT":0.00280657,"MEAN_MOTION_DDOT":0},{"OBJECT_NAME":"STARLINK-36948","OBJECT_ID":"2026-053C","EPOCH":"2026-04-01T04:53:44.697984","MEAN_MOTION":15.80897055,"ECCENTRICITY":0.0001445,"INCLINATION":97.2847,"RA_OF_ASC_NODE":326.5865,"ARG_OF_PERICENTER":83.2996,"MEAN_ANOMALY":276.8436,"EPHEMERIS_TYPE":0,"CLASSIFICATION_TYPE":"U","NORAD_CAT_ID":68209,"ELEMENT_SET_NO":999,"REV_AT_EPOCH":359,"BSTAR":0.0011067,"MEAN_MOTION_DOT":0.00218031,"MEAN_MOTION_DDOT":0},{"OBJECT_NAME":"STARLINK-37119","OBJECT_ID":"2026-053D","EPOCH":"2026-04-01T04:52:40.079424","MEAN_MOTION":15.80946875,"ECCENTRICITY":0.000127,"INCLINATION":97.2848,"RA_OF_ASC_NODE":326.5868,"ARG_OF_PERICENTER":98.842,"MEAN_ANOMALY":261.2992,"EPHEMERIS_TYPE":0,"CLASSIFICATION_TYPE":"U","NORAD_CAT_ID":68210,"ELEMENT_SET_NO":999,"REV_AT_EPOCH":361,"BSTAR":0.0012071,"MEAN_MOTION_DOT":0.00238942,"MEAN_MOTION_DDOT":0},{"OBJECT_NAME":"STARLINK-37120","OBJECT_ID":"2026-053E","EPOCH":"2026-04-01T04:51:34.708320","MEAN_MOTION":15.80890733,"ECCENTRICITY":8.6e-5,"INCLINATION":97.2849,"RA_OF_ASC_NODE":326.5877,"ARG_OF_PERICENTER":81.607,"MEAN_ANOMALY":278.5295,"EPHEMERIS_TYPE":0,"CLASSIFICATION_TYPE":"U","NORAD_CAT_ID":68211,"ELEMENT_SET_NO":999,"REV_AT_EPOCH":359,"BSTAR":0.00090022,"MEAN_MOTION_DOT":0.00176424,"MEAN_MOTION_DDOT":0},{"OBJECT_NAME":"STARLINK-37117","OBJECT_ID":"2026-053F","EPOCH":"2026-04-01T04:50:29.794272","MEAN_MOTION":15.80898155,"ECCENTRICITY":0.0001374,"INCLINATION":97.2844,"RA_OF_ASC_NODE":326.5893,"ARG_OF_PERICENTER":59.0099,"MEAN_ANOMALY":301.1304,"EPHEMERIS_TYPE":0,"CLASSIFICATION_TYPE":"U","NORAD_CAT_ID":68212,"ELEMENT_SET_NO":999,"REV_AT_EPOCH":361,"BSTAR":0.00098139,"MEAN_MOTION_DOT":0.00192775,"MEAN_MOTION_DDOT":0},{"OBJECT_NAME":"STARLINK-37116","OBJECT_ID":"2026-053G","EPOCH":"2026-04-01T04:49:24.953664","MEAN_MOTION":15.80876673,"ECCENTRICITY":0.0001461,"INCLINATION":97.2847,"RA_OF_ASC_NODE":326.5899,"ARG_OF_PERICENTER":86.2175,"MEAN_ANOMALY":273.926,"EPHEMERIS_TYPE":0,"CLASSIFICATION_TYPE":"U","NORAD_CAT_ID":68213,"ELEMENT_SET_NO":999,"REV_AT_EPOCH":361,"BSTAR":0.00070921,"MEAN_MOTION_DOT":0.00138261,"MEAN_MOTION_DDOT":0},{"OBJECT_NAME":"STARLINK-35854","OBJECT_ID":"2026-053H","EPOCH":"2026-04-01T03:17:10.625856","MEAN_MOTION":15.80897712,"ECCENTRICITY":0.0001007,"INCLINATION":97.2845,"RA_OF_ASC_NODE":326.524,"ARG_OF_PERICENTER":86.9169,"MEAN_ANOMALY":273.2214,"EPHEMERIS_TYPE":0,"CLASSIFICATION_TYPE":"U","NORAD_CAT_ID":68214,"ELEMENT_SET_NO":999,"REV_AT_EPOCH":358,"BSTAR":0.00089844,"MEAN_MOTION_DOT":0.00176125,"MEAN_MOTION_DDOT":0},{"OBJECT_NAME":"STARLINK-36272","OBJECT_ID":"2026-053J","EPOCH":"2026-04-01T04:47:15.014112","MEAN_MOTION":15.80873217,"ECCENTRICITY":0.0001213,"INCLINATION":97.2848,"RA_OF_ASC_NODE":326.5917,"ARG_OF_PERICENTER":80.9522,"MEAN_ANOMALY":279.1884,"EPHEMERIS_TYPE":0,"CLASSIFICATION_TYPE":"U","NORAD_CAT_ID":68215,"ELEMENT_SET_NO":999,"REV_AT_EPOCH":359,"BSTAR":0.00070958,"MEAN_MOTION_DOT":0.00138312,"MEAN_MOTION_DDOT":0},{"OBJECT_NAME":"STARLINK-37014","OBJECT_ID":"2026-053K","EPOCH":"2026-04-01T04:46:10.042176","MEAN_MOTION":15.80904767,"ECCENTRICITY":0.0001311,"INCLINATION":97.2847,"RA_OF_ASC_NODE":326.593,"ARG_OF_PERICENTER":69.0188,"MEAN_ANOMALY":291.122,"EPHEMERIS_TYPE":0,"CLASSIFICATION_TYPE":"U","NORAD_CAT_ID":68216,"ELEMENT_SET_NO":999,"REV_AT_EPOCH":361,"BSTAR":0.001045,"MEAN_MOTION_DOT":0.00205644,"MEAN_MOTION_DDOT":0},{"OBJECT_NAME":"STARLINK-37011","OBJECT_ID":"2026-053L","EPOCH":"2026-04-01T04:45:05.100480","MEAN_MOTION":15.8086861,"ECCENTRICITY":0.0001487,"INCLINATION":97.2847,"RA_OF_ASC_NODE":326.5941,"ARG_OF_PERICENTER":112.9874,"MEAN_ANOMALY":247.1551,"EPHEMERIS_TYPE":0,"CLASSIFICATION_TYPE":"U","NORAD_CAT_ID":68217,"ELEMENT_SET_NO":999,"REV_AT_EPOCH":361,"BSTAR":0.00062977,"MEAN_MOTION_DOT":0.00122492,"MEAN_MOTION_DDOT":0},{"OBJECT_NAME":"STARLINK-37108","OBJECT_ID":"2026-053M","EPOCH":"2026-04-01T04:44:00.174336","MEAN_MOTION":15.80886465,"ECCENTRICITY":0.0001331,"INCLINATION":97.2846,"RA_OF_ASC_NODE":326.595,"ARG_OF_PERICENTER":58.7301,"MEAN_ANOMALY":301.4097,"EPHEMERIS_TYPE":0,"CLASSIFICATION_TYPE":"U","NORAD_CAT_ID":68218,"ELEMENT_SET_NO":999,"REV_AT_EPOCH":361,"BSTAR":0.00087587,"MEAN_MOTION_DOT":0.00171518,"MEAN_MOTION_DDOT":0},{"OBJECT_NAME":"STARLINK-37106","OBJECT_ID":"2026-053N","EPOCH":"2026-04-01T04:42:55.069344","MEAN_MOTION":15.80925851,"ECCENTRICITY":0.0001567,"INCLINATION":97.2849,"RA_OF_ASC_NODE":326.5963,"ARG_OF_PERICENTER":54.4615,"MEAN_ANOMALY":305.6799,"EPHEMERIS_TYPE":0,"CLASSIFICATION_TYPE":"U","NORAD_CAT_ID":68219,"ELEMENT_SET_NO":999,"REV_AT_EPOCH":361,"BSTAR":0.0011897,"MEAN_MOTION_DOT":0.00235169,"MEAN_MOTION_DDOT":0},{"OBJECT_NAME":"STARLINK-37030","OBJECT_ID":"2026-053P","EPOCH":"2026-04-01T03:09:36.312192","MEAN_MOTION":15.80906214,"ECCENTRICITY":0.00016,"INCLINATION":97.2846,"RA_OF_ASC_NODE":326.5308,"ARG_OF_PERICENTER":88.4912,"MEAN_ANOMALY":271.654,"EPHEMERIS_TYPE":0,"CLASSIFICATION_TYPE":"U","NORAD_CAT_ID":68220,"ELEMENT_SET_NO":999,"REV_AT_EPOCH":360,"BSTAR":0.0010448,"MEAN_MOTION_DOT":0.0020563,"MEAN_MOTION_DDOT":0},{"OBJECT_NAME":"STARLINK-37012","OBJECT_ID":"2026-053Q","EPOCH":"2026-04-01T04:41:50.374752","MEAN_MOTION":15.80879081,"ECCENTRICITY":0.0001453,"INCLINATION":97.2847,"RA_OF_ASC_NODE":326.5969,"ARG_OF_PERICENTER":96.869,"MEAN_ANOMALY":263.2744,"EPHEMERIS_TYPE":0,"CLASSIFICATION_TYPE":"U","NORAD_CAT_ID":68221,"ELEMENT_SET_NO":999,"REV_AT_EPOCH":361,"BSTAR":0.00067718,"MEAN_MOTION_DOT":0.00131929,"MEAN_MOTION_DDOT":0},{"OBJECT_NAME":"STARLINK-37110","OBJECT_ID":"2026-053R","EPOCH":"2026-04-01T04:39:40.419648","MEAN_MOTION":15.80908744,"ECCENTRICITY":0.0001209,"INCLINATION":97.2846,"RA_OF_ASC_NODE":326.599,"ARG_OF_PERICENTER":110.7357,"MEAN_ANOMALY":249.404,"EPHEMERIS_TYPE":0,"CLASSIFICATION_TYPE":"U","NORAD_CAT_ID":68222,"ELEMENT_SET_NO":999,"REV_AT_EPOCH":361,"BSTAR":0.0011251,"MEAN_MOTION_DOT":0.00221867,"MEAN_MOTION_DDOT":0},{"OBJECT_NAME":"STARLINK-37025","OBJECT_ID":"2026-053S","EPOCH":"2026-04-01T04:38:35.507328","MEAN_MOTION":15.80901737,"ECCENTRICITY":0.0001291,"INCLINATION":97.2847,"RA_OF_ASC_NODE":326.5989,"ARG_OF_PERICENTER":67.9461,"MEAN_ANOMALY":292.1944,"EPHEMERIS_TYPE":0,"CLASSIFICATION_TYPE":"U","NORAD_CAT_ID":68223,"ELEMENT_SET_NO":999,"REV_AT_EPOCH":361,"BSTAR":0.0010112,"MEAN_MOTION_DOT":0.00198811,"MEAN_MOTION_DDOT":0},{"OBJECT_NAME":"STARLINK-36977","OBJECT_ID":"2026-053T","EPOCH":"2026-04-01T04:37:30.602784","MEAN_MOTION":15.80882362,"ECCENTRICITY":0.0001483,"INCLINATION":97.2848,"RA_OF_ASC_NODE":326.5997,"ARG_OF_PERICENTER":50.8149,"MEAN_ANOMALY":309.325,"EPHEMERIS_TYPE":0,"CLASSIFICATION_TYPE":"U","NORAD_CAT_ID":68224,"ELEMENT_SET_NO":999,"REV_AT_EPOCH":359,"BSTAR":0.00076781,"MEAN_MOTION_DOT":0.00149939,"MEAN_MOTION_DDOT":0}]
