STARLINK-37009          
1 68208U 26053B   26091.20472451  .00280657  00000+0  14082-2 0  9997
2 68208  97.2846 326.5848 0001393  40.1181 320.0189 15.80988831  3613
STARLINK-36948          
1 68209U 26053C   26091.20398956  .00218031  00000+0  11067-2 0  9992
2 68209  97.2847 326.5865 0001445  83.2996 276.8436 15.80897055  3591
STARLINK-37119          
1 68210U 26053D   26091.20324166  .00238942  00000+0  12071-2 0  9995
2 68210  97.2848 326.5868 0001270  98.8420 261.2992 15.80946875  3610
STARLINK-37120          
1 68211U 26053E   26091.20248505  .00176424  00000+0  90022-3 0  9997
2 68211  97.2849 326.5877 0000860  81.6070 278.5295 15.80890733  3592
STARLINK-37117          
1 68212U 26053F   26091.20173373  .00192775  00000+0  98139-3 0  9992
2 68212  97.2844 326.5893 0001374  59.0099 301.1304 15.80898155  3610
STARLINK-37116          
1 68213U 26053G   26091.20098326  .00138261  00000+0  70921-3 0  9996
2 68213  97.2847 326.5899 0001461  86.2175 273.9260 15.80876673  3612
STARLINK-35854          
1 68214U 26053H   26091.13692854  .00176125  00000+0  89844-3 0  9990
2 68214  97.2845 326.5240 0001007  86.9169 273.2214 15.80897712  3582
STARLINK-36272          
1 68215U 26053J   26091.19947933  .00138312  00000+0  70958-3 0  9990
2 68215  97.2848 326.5917 0001213  80.9522 279.1884 15.80873217  3596
STARLINK-37014          
1 68216U 26053K   26091.19872734  .00205644  00000+0  10450-2 0  9990
2 68216  97.2847 326.5930 0001311  69.0188 291.1220 15.80904767  3612
STARLINK-37011          
1 68217U 26053L   26091.19797570  .00122492  00000+0  62977-3 0  9996
2 68217  97.2847 326.5941 0001487 112.9874 247.1551 15.80868610  3613
STARLINK-37108          
1 68218U 26053M   26091.19722424  .00171518  00000+0  87587-3 0  9990
2 68218  97.2846 326.5950 0001331  58.7301 301.4097 15.80886465  3610
STARLINK-37106          
1 68219U 26053N   26091.19647071  .00235169  00000+0  11897-2 0  9998
2 68219  97.2849 326.5963 0001567  54.4615 305.6799 15.80925851  3618
STARLINK-37030          
1 68220U 26053P   26091.13167028  .00205630  00000+0  10448-2 0  9994
2 68220  97.2846 326.5308 0001600  88.4912 271.6540 15.80906214  3602
STARLINK-37012          
1 68221U 26053Q   26091.19572193  .00131929  00000+0  67718-3 0  9996
2 68221  97.2847 326.5969 0001453  96.8690 263.2744 15.80879081  3614
STARLINK-37110          
1 68222U 26053R   26091.19421782  .00221867  00000+0  11251-2 0  9995
2 68222  97.2846 326.5990 0001209 110.7357 249.4040 15.80908744  3617
STARLINK-37025          
1 68223U 26053S   26091.19346652  .00198811  00000+0  10112-2 0  9995
2 68223  97.2847 326.5989 0001291  67.9461 292.1944 15.80901737  3610
STARLINK-36977          
1 68224U 26053T   26091.19271531  .00149939  00000+0  76781-3 0  9991
2 68224  97.2848 326.5997 0001483  50.8149 309.3250 15.80882362  3598
